     2.100          NAVIGATION                              RINEX VERSION / TYPE
fic2rin                                 11/11/2013 00:16:21 PGM / RUN BY / DATE
                                                            END OF HEADER
26 13 11 10  8  0  0.0  .253192149103D-03 -.102318153949D-10  .000000000000D+00
     .300000000000D+01  .181250000000D+01  .439554023475D-08 -.870342764995D+00
     .417232513428D-06  .211219353369D-01  .818260014057D-05  .515368056297D+04
     .288000000000D+05 -.117346644402D-06 -.228274848614D+01  .342726707458D-06
     .977175846793D+00  .235312500000D+03  .125401057606D+01 -.829891711178D-08
    -.315013121561D-09  .100000000000D+01  .176600000000D+04  .000000000000D+00
     .240000000000D+01  .000000000000D+00 -.605359673500D-08  .300000000000D+01
     .216060000000D+05  .400000000000D+01
27 13 11 10  8  0  0.0 -.566947273910D-04 -.363797880709D-11  .000000000000D+00
     .550000000000D+02 -.709375000000D+02  .460304887832D-08 -.228399795277D+00
    -.376626849174D-05  .452555250376D-03  .691413879395D-05  .515367111206D+04
     .288000000000D+05 -.502914190292D-07  .760404316269D+00 -.745058059692D-08
     .961404105037D+00  .242937500000D+03  .737804717442D+00 -.820284168128D-08
    -.203222750758D-09  .100000000000D+01  .176600000000D+04  .000000000000D+00
     .240000000000D+01  .000000000000D+00  .186264514923D-08  .550000000000D+02
     .216060000000D+05  .400000000000D+01
28 13 11 10  8  0  0.0  .307601876557D-03  .306954461848D-11  .000000000000D+00
     .840000000000D+02  .281250000000D+00  .435625288399D-08  .118635467888D+01
    -.217929482460D-06  .190135823796D-01  .547990202904D-05  .515365424919D+04
     .288000000000D+05 -.385567545891D-06 -.223525963736D+00 -.229105353355D-06
     .985183711142D+00  .293750000000D+03 -.175644587708D+01 -.839749264642D-08
     .112861844006D-09  .100000000000D+01  .176600000000D+04  .000000000000D+00
     .340000000000D+01  .000000000000D+00 -.107102096081D-07  .840000000000D+02
     .216060000000D+05  .400000000000D+01
29 13 11 10  8  0  0.0  .485888216645D-03  .306954461848D-11  .000000000000D+00
     .210000000000D+02 -.803125000000D+02  .441696969880D-08 -.295472580625D+01
    -.423565506935D-05  .140190008096D-02  .717490911484D-05  .515354980469D+04
     .288000000000D+05  .447034835815D-07  .813580776951D+00 -.521540641785D-07
     .967411774161D+00  .244312500000D+03 -.103977363596D+01 -.804462080503D-08
    -.225009372544D-09  .100000000000D+01  .176600000000D+04  .000000000000D+00
     .240000000000D+01  .000000000000D+00 -.931322574615D-08  .210000000000D+02
     .216060000000D+05  .400000000000D+01
32 13 11 10  8  0  0.0 -.531194265932D-03  .443378667114D-11  .000000000000D+00
     .460000000000D+02  .336875000000D+02  .497770734149D-08 -.193282305905D+01
     .172667205334D-05  .115990628256D-01  .681169331074D-05  .515355474281D+04
     .288000000000D+05 -.143423676491D-06  .294385193470D+01 -.154599547386D-06
     .948829718498D+00  .244562500000D+03 -.247079633847D+00 -.836213403073D-08
     .191436545529D-09  .100000000000D+01  .176600000000D+04  .000000000000D+00
     .240000000000D+01  .000000000000D+00 -.325962901115D-08  .460000000000D+02
     .216060000000D+05  .400000000000D+01
15 13 11 10  7 59 44.0 -.146378297359D-03 -.193267624127D-11  .000000000000D+00
     .000000000000D+00 -.756250000000D+01  .521557439247D-08 -.332292509751D+00
    -.344589352608D-06  .581293075811D-02  .690482556820D-05  .515359234619D+04
     .287840000000D+05  .115483999252D-06 -.241063338627D+01 -.931322574615D-08
     .939043419751D+00  .232656250000D+03  .176573343194D+00 -.856107088868D-08
    -.303584074067D-09  .100000000000D+01  .176600000000D+04  .000000000000D+00
     .240000000000D+01  .000000000000D+00 -.102445483208D-07  .000000000000D+00
     .224160000000D+05  .400000000000D+01
16 13 11 10  7 59 44.0 -.242228154093D-03  .102318153949D-11  .000000000000D+00
     .400000000000D+01  .237500000000D+01  .420303221602D-08  .133304175703D+01
     .387430191040D-06  .711739470717D-02  .502169132233D-05  .515374588203D+04
     .287840000000D+05  .912696123123D-07 -.229555550299D+00  .894069671631D-07
     .986703163690D+00  .294406250000D+03  .132988219630D+00 -.812819571483D-08
     .821462788651D-11  .100000000000D+01  .176600000000D+04  .000000000000D+00
     .240000000000D+01  .000000000000D+00 -.977888703346D-08  .400000000000D+01
     .225060000000D+05  .400000000000D+01
10 13 11 10  7 59 44.0 -.101162586361D-03 -.147792889038D-11  .000000000000D+00
     .100000000000D+01  .382812500000D+02  .521878881207D-08  .144158215200D+01
     .197440385818D-05  .131069055060D-01  .718422234058D-05  .515367054176D+04
     .287840000000D+05 -.201165676117D-06  .287347298375D+01  .502914190292D-07
     .943102948663D+00  .234281250000D+03  .831140681511D+00 -.857392856711D-08
     .414302971667D-10  .100000000000D+01  .176600000000D+04  .000000000000D+00
     .240000000000D+01  .000000000000D+00 -.279396772385D-08  .100000000000D+01
     .234660000000D+05  .400000000000D+01
 4 13 11 10  7 59 44.0  .303145498037D-05  .454747350886D-12  .000000000000D+00
     .440000000000D+02 -.179375000000D+02  .494270588354D-08  .220974887252D+01
    -.109709799290D-05  .106677055592D-01  .115707516670D-04  .515363815689D+04
     .287840000000D+05  .242143869400D-07  .180501719892D+01 -.175088644028D-06
     .937717265494D+00  .143656250000D+03  .105129699632D+01 -.811748098281D-08
     .141434462742D-09  .100000000000D+01  .176600000000D+04  .000000000000D+00
     .240000000000D+01  .000000000000D+00 -.651925802231D-08  .440000000000D+02
     .259560000000D+05  .400000000000D+01
 7 13 11 10  7 59 44.0  .279092695564D-03  .420641299570D-11  .000000000000D+00
     .900000000000D+01  .509375000000D+02  .411838583302D-08 -.247371314989D+01
     .248104333878D-05  .700282293838D-02  .955536961555D-05  .515366911316D+04
     .287840000000D+05 -.372529029846D-07 -.130849310513D+01 -.108033418655D-06
     .974503527023D+00  .205906250000D+03 -.284485164546D+01 -.787854245863D-08
     .102861427448D-09  .100000000000D+01  .176600000000D+04  .000000000000D+00
     .240000000000D+01  .000000000000D+00 -.107102096081D-07  .900000000000D+01
     .269160000000D+05  .400000000000D+01
 4 13 11 10  9 59 44.0  .303518027067D-05  .454747350886D-12  .000000000000D+00
     .630000000000D+02 -.565625000000D+01  .486877423256D-08 -.302331166582D+01
    -.394880771637D-06  .106660958845D-01  .111982226372D-04  .515364150810D+04
     .359840000000D+05  .707805156708D-07  .180495936831D+01 -.707805156708D-07
     .937718454846D+00  .149375000000D+03  .105137627038D+01 -.804176354316D-08
     .118576367753D-09  .100000000000D+01  .176600000000D+04  .000000000000D+00
     .240000000000D+01  .000000000000D+00 -.651925802231D-08  .630000000000D+02
     .288060000000D+05  .400000000000D+01
 7 13 11 10  9 59 44.0  .279122497886D-03  .420641299570D-11  .000000000000D+00
     .100000000000D+02  .400000000000D+02  .414838708269D-08 -.142385052427D+01
     .191107392311D-05  .700428429991D-02  .842846930027D-05  .515366417503D+04
     .359840000000D+05  .502914190292D-07 -.130855014285D+01 -.856816768646D-07
     .974504458902D+00  .223031250000D+03 -.284453102063D+01 -.790425781549D-08
     .138577200868D-09  .100000000000D+01  .176600000000D+04  .000000000000D+00
     .240000000000D+01  .000000000000D+00 -.107102096081D-07  .100000000000D+02
     .288060000000D+05  .400000000000D+01
10 13 11 10  9 59 44.0 -.101173296571D-03 -.147792889038D-11  .000000000000D+00
     .190000000000D+02  .374062500000D+02  .505485341208D-08  .249174287498D+01
     .181421637535D-05  .131066887407D-01  .691041350365D-05  .515367129326D+04
     .359840000000D+05 -.558793544769D-08  .287341170358D+01 -.232830643654D-06
     .943105020155D+00  .237281250000D+03  .831167521669D+00 -.824748639806D-08
     .132862677121D-09  .100000000000D+01  .176600000000D+04  .000000000000D+00
     .240000000000D+01  .000000000000D+00 -.279396772385D-08  .190000000000D+02
     .288060000000D+05  .400000000000D+01
15 13 11 10  9 59 44.0 -.146391801536D-03 -.193267624127D-11  .000000000000D+00
     .100000000000D+01 -.625000000000D+00  .514378568789D-08  .717873476803D+00
     .242143869400D-07  .581383355893D-02  .677816569805D-05  .515359419250D+04
     .359840000000D+05  .856816768646D-07 -.241069457867D+01  .100582838058D-06
     .939041405312D+00  .235375000000D+03  .176642347577D+00 -.848785355317D-08
    -.345728686702D-09  .100000000000D+01  .176600000000D+04  .000000000000D+00
     .240000000000D+01  .000000000000D+00 -.102445483208D-07  .100000000000D+01
     .288060000000D+05  .400000000000D+01
16 13 11 10  9 59 44.0 -.242220703512D-03  .102318153949D-11  .000000000000D+00
     .250000000000D+02  .928125000000D+01  .421481842125D-08  .238324317400D+01
     .556930899620D-06  .711792614311D-02  .525824725628D-05  .515374473763D+04
     .359840000000D+05 -.186264514923D-06 -.229614845294D+00  .117346644402D-06
     .986704249175D+00  .293031250000D+03  .132921899702D+00 -.800569061201D-08
     .206437170365D-09  .100000000000D+01  .176600000000D+04  .000000000000D+00
     .240000000000D+01  .000000000000D+00 -.977888703346D-08  .250000000000D+02
     .288060000000D+05  .400000000000D+01
 1 13 11 10 10  0  0.0  .929348170757D-04  .329691829393D-11  .000000000000D+00
     .410000000000D+02 -.118750000000D+02  .443875632059D-08 -.877737760295D+00
    -.689178705215D-06  .250056642108D-02  .105313956738D-04  .515368960571D+04
     .360000000000D+05  .763684511185D-07  .181399120509D+01 -.167638063431D-07
     .960173931373D+00  .178031250000D+03  .431143658887D+00 -.797533220460D-08
     .642883921553D-11  .100000000000D+01  .176600000000D+04  .000000000000D+00
     .240000000000D+01  .000000000000D+00  .791624188423D-08  .410000000000D+02
     .288060000000D+05  .400000000000D+01
